{
  "type": "FeatureCollection",
  "features": [
    { "type": "Feature", "properties": { "id": "huambo-municipio", "name": "Huambo" }, "geometry": { "type": "Polygon", "coordinates": [[[15.35,-12.95],[15.85,-13.05],[15.82,-13.55],[15.30,-13.52],[15.20,-13.20],[15.35,-12.95]]] } },
    { "type": "Feature", "properties": { "id": "caala", "name": "Caála" }, "geometry": { "type": "Polygon", "coordinates": [[[14.95,-13.15],[15.30,-13.20],[15.30,-13.52],[14.95,-13.72],[14.70,-13.45],[14.95,-13.15]]] } },
    { "type": "Feature", "properties": { "id": "bailundo", "name": "Bailundo" }, "geometry": { "type": "Polygon", "coordinates": [[[15.25,-12.55],[15.80,-12.55],[15.85,-13.05],[15.35,-12.95],[15.10,-12.78],[15.25,-12.55]]] } }
  ]
}
