{
  "type": "FeatureCollection",
  "features": [
    { "type": "Feature", "properties": { "id": "luanda-municipio", "name": "Luanda" }, "geometry": { "type": "Polygon", "coordinates": [[[13.12,-8.78],[13.35,-8.82],[13.36,-9.05],[13.16,-9.10],[13.05,-8.94],[13.12,-8.78]]] } },
    { "type": "Feature", "properties": { "id": "viana", "name": "Viana" }, "geometry": { "type": "Polygon", "coordinates": [[[13.35,-8.82],[13.70,-8.86],[13.70,-9.35],[13.36,-9.30],[13.36,-9.05],[13.35,-8.82]]] } },
    { "type": "Feature", "properties": { "id": "belas", "name": "Belas" }, "geometry": { "type": "Polygon", "coordinates": [[[13.05,-8.94],[13.16,-9.10],[13.36,-9.30],[13.24,-9.62],[12.95,-9.45],[12.92,-9.12],[13.05,-8.94]]] } }
  ]
}
