{
  "type": "FeatureCollection",
  "features": [
    { "type": "Feature", "properties": { "id": "cabinda", "name": "Cabinda" }, "geometry": { "type": "Polygon", "coordinates": [[[12.0,-4.9],[12.7,-4.7],[13.0,-5.2],[12.8,-5.8],[12.1,-5.7],[11.9,-5.3],[12.0,-4.9]]] } },
    { "type": "Feature", "properties": { "id": "zaire", "name": "Zaire" }, "geometry": { "type": "Polygon", "coordinates": [[[12.2,-6.0],[14.2,-6.0],[14.4,-7.4],[13.4,-8.1],[12.1,-7.8],[11.8,-6.8],[12.2,-6.0]]] } },
    { "type": "Feature", "properties": { "id": "uige", "name": "Uíge" }, "geometry": { "type": "Polygon", "coordinates": [[[14.2,-6.0],[16.7,-6.1],[17.0,-7.6],[16.0,-8.8],[14.4,-8.2],[14.4,-7.4],[14.2,-6.0]]] } },
    { "type": "Feature", "properties": { "id": "bengo", "name": "Bengo" }, "geometry": { "type": "Polygon", "coordinates": [[[12.1,-7.8],[13.4,-8.1],[14.4,-8.2],[14.2,-9.8],[12.8,-10.2],[11.8,-9.1],[12.1,-7.8]]] } },
    { "type": "Feature", "properties": { "id": "luanda", "name": "Luanda" }, "geometry": { "type": "Polygon", "coordinates": [[[12.8,-8.7],[13.6,-8.9],[13.7,-9.5],[13.1,-9.8],[12.7,-9.4],[12.8,-8.7]]] } },
    { "type": "Feature", "properties": { "id": "kwanza-norte", "name": "Cuanza Norte" }, "geometry": { "type": "Polygon", "coordinates": [[[14.2,-8.6],[16.0,-8.8],[16.2,-10.3],[14.7,-10.6],[13.9,-9.8],[14.2,-8.6]]] } },
    { "type": "Feature", "properties": { "id": "malanje", "name": "Malanje" }, "geometry": { "type": "Polygon", "coordinates": [[[16.0,-8.8],[18.5,-8.4],[19.2,-10.2],[18.0,-11.4],[16.2,-10.3],[16.0,-8.8]]] } },
    { "type": "Feature", "properties": { "id": "lunda-norte", "name": "Lunda Norte" }, "geometry": { "type": "Polygon", "coordinates": [[[18.5,-7.2],[22.2,-7.7],[22.4,-9.8],[20.5,-11.0],[19.2,-10.2],[18.5,-8.4],[18.5,-7.2]]] } },
    { "type": "Feature", "properties": { "id": "lunda-sul", "name": "Lunda Sul" }, "geometry": { "type": "Polygon", "coordinates": [[[20.5,-11.0],[22.4,-9.8],[23.7,-11.2],[23.2,-13.0],[21.2,-13.2],[19.8,-12.2],[20.5,-11.0]]] } },
    { "type": "Feature", "properties": { "id": "moxico", "name": "Moxico" }, "geometry": { "type": "Polygon", "coordinates": [[[18.0,-11.4],[19.8,-12.2],[21.2,-13.2],[23.2,-13.0],[23.9,-16.4],[21.6,-17.4],[18.3,-15.8],[17.5,-13.2],[18.0,-11.4]]] } },
    { "type": "Feature", "properties": { "id": "kwanza-sul", "name": "Cuanza Sul" }, "geometry": { "type": "Polygon", "coordinates": [[[12.8,-10.2],[14.7,-10.6],[16.2,-10.3],[16.5,-12.2],[14.6,-13.0],[12.4,-12.2],[11.8,-11.0],[12.8,-10.2]]] } },
    { "type": "Feature", "properties": { "id": "benguela", "name": "Benguela" }, "geometry": { "type": "Polygon", "coordinates": [[[12.4,-12.2],[14.6,-13.0],[14.8,-14.4],[13.4,-15.0],[12.0,-14.3],[11.5,-13.3],[12.4,-12.2]]] } },
    { "type": "Feature", "properties": { "id": "huambo", "name": "Huambo" }, "geometry": { "type": "Polygon", "coordinates": [[[14.6,-13.0],[16.4,-12.8],[16.6,-14.4],[15.4,-15.0],[14.8,-14.4],[14.6,-13.0]]] } },
    { "type": "Feature", "properties": { "id": "bie", "name": "Bié" }, "geometry": { "type": "Polygon", "coordinates": [[[16.4,-12.8],[18.0,-11.4],[17.5,-13.2],[18.3,-15.8],[16.6,-15.4],[16.6,-14.4],[16.4,-12.8]]] } },
    { "type": "Feature", "properties": { "id": "huila", "name": "Huíla" }, "geometry": { "type": "Polygon", "coordinates": [[[13.4,-15.0],[15.4,-15.0],[16.6,-15.4],[16.5,-17.2],[14.8,-17.8],[13.0,-17.0],[12.2,-15.8],[13.4,-15.0]]] } },
    { "type": "Feature", "properties": { "id": "namibe", "name": "Namibe" }, "geometry": { "type": "Polygon", "coordinates": [[[11.5,-13.3],[12.0,-14.3],[13.4,-15.0],[12.2,-15.8],[12.1,-17.4],[11.0,-17.3],[10.8,-15.0],[11.5,-13.3]]] } },
    { "type": "Feature", "properties": { "id": "cunene", "name": "Cunene" }, "geometry": { "type": "Polygon", "coordinates": [[[12.1,-17.4],[14.8,-17.8],[16.5,-17.2],[16.8,-18.8],[14.8,-18.9],[12.2,-18.7],[12.1,-17.4]]] } },
    { "type": "Feature", "properties": { "id": "cuando-cubango", "name": "Cuando Cubango" }, "geometry": { "type": "Polygon", "coordinates": [[[16.5,-17.2],[18.3,-15.8],[21.6,-17.4],[23.9,-16.4],[23.8,-18.9],[16.8,-18.8],[16.5,-17.2]]] } }
  ]
}
